<?xml version="1.0" encoding="UTF-8"?>
<kml xmlns="http://www.opengis.net/kml/2.2" xmlns:gx="http://www.google.com/kml/ext/2.2" xmlns:kml="http://www.opengis.net/kml/2.2" xmlns:atom="http://www.w3.org/2005/Atom">
<Document>
<Folder><name>JTWC</name><Placemark>
<name>JTWC發佈時間:10/08 02</name>
<description>JTWC發佈時間:10/08 02</description>
<StyleMap id="JTWC_00"> 
<Pair><key>normal</key><styleUrl>#JTWC_nb00</styleUrl></Pair>
<Pair><key>highlight</key><styleUrl>#JTWC_hb00</styleUrl></Pair>
</StyleMap>
<Style id="JTWC_hb00"><IconStyle><scale>0.6</scale><Icon><href>https://dwfile1.ncdr.nat.gov.tw/disp/demo/icon/O00.png</href></Icon></IconStyle></Style>
<Style id="JTWC_nb00"><IconStyle><scale>0.5</scale><Icon><href>https://dwfile1.ncdr.nat.gov.tw/disp/demo/icon/O00.png</href></Icon></IconStyle></Style>
<styleUrl>#JTWC_00</styleUrl>
<Point><coordinates>161.600006103516,16.1000003814697,0</coordinates></Point>
</Placemark>
<Placemark>
<name></name>
<description></description>
<StyleMap id="JTWC_24"> 
<Pair><key>normal</key><styleUrl>#JTWC_nb24</styleUrl></Pair>
<Pair><key>highlight</key><styleUrl>#JTWC_hb24</styleUrl></Pair>
</StyleMap>
<Style id="JTWC_hb24"><IconStyle><scale>0.6</scale><Icon><href>https://dwfile1.ncdr.nat.gov.tw/disp/demo/icon/O24.png</href></Icon></IconStyle></Style>
<Style id="JTWC_nb24"><IconStyle><scale>0.5</scale><Icon><href>https://dwfile1.ncdr.nat.gov.tw/disp/demo/icon/O24.png</href></Icon></IconStyle></Style>
<styleUrl>#JTWC_24</styleUrl>
<Point><coordinates>157.699996948242,17.7000007629395,0</coordinates></Point>
</Placemark>
<Placemark>
<name></name>
<description></description>
<StyleMap id="JTWC_48"> 
<Pair><key>normal</key><styleUrl>#JTWC_nb48</styleUrl></Pair>
<Pair><key>highlight</key><styleUrl>#JTWC_hb48</styleUrl></Pair>
</StyleMap>
<Style id="JTWC_hb48"><IconStyle><scale>0.6</scale><Icon><href>https://dwfile1.ncdr.nat.gov.tw/disp/demo/icon/O48.png</href></Icon></IconStyle></Style>
<Style id="JTWC_nb48"><IconStyle><scale>0.5</scale><Icon><href>https://dwfile1.ncdr.nat.gov.tw/disp/demo/icon/O48.png</href></Icon></IconStyle></Style>
<styleUrl>#JTWC_48</styleUrl>
<Point><coordinates>153.100006103516,19.7000007629395,0</coordinates></Point>
</Placemark>
<Placemark>
<name></name>
<description></description>
<StyleMap id="JTWC_72"> 
<Pair><key>normal</key><styleUrl>#JTWC_nb72</styleUrl></Pair>
<Pair><key>highlight</key><styleUrl>#JTWC_hb72</styleUrl></Pair>
</StyleMap>
<Style id="JTWC_hb72"><IconStyle><scale>0.6</scale><Icon><href>https://dwfile1.ncdr.nat.gov.tw/disp/demo/icon/O72.png</href></Icon></IconStyle></Style>
<Style id="JTWC_nb72"><IconStyle><scale>0.5</scale><Icon><href>https://dwfile1.ncdr.nat.gov.tw/disp/demo/icon/O72.png</href></Icon></IconStyle></Style>
<styleUrl>#JTWC_72</styleUrl>
<Point><coordinates>149.300003051758,22.2999992370605,0</coordinates></Point>
</Placemark>
<Placemark>
<name></name>
<description></description>
<StyleMap id="JTWC_96"> 
<Pair><key>normal</key><styleUrl>#JTWC_nb96</styleUrl></Pair>
<Pair><key>highlight</key><styleUrl>#JTWC_hb96</styleUrl></Pair>
</StyleMap>
<Style id="JTWC_hb96"><IconStyle><scale>0.6</scale><Icon><href>https://dwfile1.ncdr.nat.gov.tw/disp/demo/icon/O96.png</href></Icon></IconStyle></Style>
<Style id="JTWC_nb96"><IconStyle><scale>0.5</scale><Icon><href>https://dwfile1.ncdr.nat.gov.tw/disp/demo/icon/O96.png</href></Icon></IconStyle></Style>
<styleUrl>#JTWC_96</styleUrl>
<Point><coordinates>146.800003051758,24.7000007629395,0</coordinates></Point>
</Placemark>
<Placemark>
<name></name>
<description></description>
<StyleMap id="JTWC_120"> 
<Pair><key>normal</key><styleUrl>#JTWC_nb120</styleUrl></Pair>
<Pair><key>highlight</key><styleUrl>#JTWC_hb120</styleUrl></Pair>
</StyleMap>
<Style id="JTWC_hb120"><IconStyle><scale>0.6</scale><Icon><href>https://dwfile1.ncdr.nat.gov.tw/disp/demo/icon/O120.png</href></Icon></IconStyle></Style>
<Style id="JTWC_nb120"><IconStyle><scale>0.5</scale><Icon><href>https://dwfile1.ncdr.nat.gov.tw/disp/demo/icon/O120.png</href></Icon></IconStyle></Style>
<styleUrl>#JTWC_120</styleUrl>
<Point><coordinates>145.5,27.2999992370605,0</coordinates></Point>
</Placemark>
<Placemark><name>JTWC</name>
<Style id="JTWCroute"><ListStyle></ListStyle>
<LineStyle><color>FF0099F3</color><width>4</width></LineStyle>
<PolyStyle><color>FF0099F3</color></PolyStyle>
</Style>
<styleUrl>#JTWCroute</styleUrl>
<LineString>
<tessellate>1</tessellate>
<coordinates>161.6,16.1,0 157.7,17.7,0 153.1,19.7,0 149.3,22.3,0 146.8,24.7,0 145.5,27.3,0 </coordinates>
</LineString></Placemark></Folder>
<Folder><name>JMA</name><Placemark>
<name>JMA發佈時間:10/08 08</name>
<description>JMA發佈時間:10/08 08</description>
<StyleMap id="JMA_00"> 
<Pair><key>normal</key><styleUrl>#JMA_nb00</styleUrl></Pair>
<Pair><key>highlight</key><styleUrl>#JMA_hb00</styleUrl></Pair>
</StyleMap>
<Style id="JMA_hb00"><IconStyle><scale>0.6</scale><Icon><href>https://dwfile1.ncdr.nat.gov.tw/disp/demo/icon/S00.png</href></Icon></IconStyle></Style>
<Style id="JMA_nb00"><IconStyle><scale>0.5</scale><Icon><href>https://dwfile1.ncdr.nat.gov.tw/disp/demo/icon/S00.png</href></Icon></IconStyle></Style>
<styleUrl>#JMA_00</styleUrl>
<Point><coordinates>161.199996948242,17,0</coordinates></Point>
</Placemark>
<Placemark>
<name></name>
<description></description>
<StyleMap id="JMA_24"> 
<Pair><key>normal</key><styleUrl>#JMA_nb24</styleUrl></Pair>
<Pair><key>highlight</key><styleUrl>#JMA_hb24</styleUrl></Pair>
</StyleMap>
<Style id="JMA_hb24"><IconStyle><scale>0.6</scale><Icon><href>https://dwfile1.ncdr.nat.gov.tw/disp/demo/icon/S24.png</href></Icon></IconStyle></Style>
<Style id="JMA_nb24"><IconStyle><scale>0.5</scale><Icon><href>https://dwfile1.ncdr.nat.gov.tw/disp/demo/icon/S24.png</href></Icon></IconStyle></Style>
<styleUrl>#JMA_24</styleUrl>
<Point><coordinates>156.899993896484,18.2999992370605,0</coordinates></Point>
</Placemark>
<Placemark>
<name></name>
<description></description>
<StyleMap id="JMA_48"> 
<Pair><key>normal</key><styleUrl>#JMA_nb48</styleUrl></Pair>
<Pair><key>highlight</key><styleUrl>#JMA_hb48</styleUrl></Pair>
</StyleMap>
<Style id="JMA_hb48"><IconStyle><scale>0.6</scale><Icon><href>https://dwfile1.ncdr.nat.gov.tw/disp/demo/icon/S48.png</href></Icon></IconStyle></Style>
<Style id="JMA_nb48"><IconStyle><scale>0.5</scale><Icon><href>https://dwfile1.ncdr.nat.gov.tw/disp/demo/icon/S48.png</href></Icon></IconStyle></Style>
<styleUrl>#JMA_48</styleUrl>
<Point><coordinates>152.100006103516,20.6000003814697,0</coordinates></Point>
</Placemark>
<Placemark>
<name></name>
<description></description>
<StyleMap id="JMA_72"> 
<Pair><key>normal</key><styleUrl>#JMA_nb72</styleUrl></Pair>
<Pair><key>highlight</key><styleUrl>#JMA_hb72</styleUrl></Pair>
</StyleMap>
<Style id="JMA_hb72"><IconStyle><scale>0.6</scale><Icon><href>https://dwfile1.ncdr.nat.gov.tw/disp/demo/icon/S72.png</href></Icon></IconStyle></Style>
<Style id="JMA_nb72"><IconStyle><scale>0.5</scale><Icon><href>https://dwfile1.ncdr.nat.gov.tw/disp/demo/icon/S72.png</href></Icon></IconStyle></Style>
<styleUrl>#JMA_72</styleUrl>
<Point><coordinates>148.5,23,0</coordinates></Point>
</Placemark>
<Placemark>
<name></name>
<description></description>
<StyleMap id="JMA_96"> 
<Pair><key>normal</key><styleUrl>#JMA_nb96</styleUrl></Pair>
<Pair><key>highlight</key><styleUrl>#JMA_hb96</styleUrl></Pair>
</StyleMap>
<Style id="JMA_hb96"><IconStyle><scale>0.6</scale><Icon><href>https://dwfile1.ncdr.nat.gov.tw/disp/demo/icon/S96.png</href></Icon></IconStyle></Style>
<Style id="JMA_nb96"><IconStyle><scale>0.5</scale><Icon><href>https://dwfile1.ncdr.nat.gov.tw/disp/demo/icon/S96.png</href></Icon></IconStyle></Style>
<styleUrl>#JMA_96</styleUrl>
<Point><coordinates>146.100006103516,25,0</coordinates></Point>
</Placemark>
<Placemark>
<name></name>
<description></description>
<StyleMap id="JMA_120"> 
<Pair><key>normal</key><styleUrl>#JMA_nb120</styleUrl></Pair>
<Pair><key>highlight</key><styleUrl>#JMA_hb120</styleUrl></Pair>
</StyleMap>
<Style id="JMA_hb120"><IconStyle><scale>0.6</scale><Icon><href>https://dwfile1.ncdr.nat.gov.tw/disp/demo/icon/S120.png</href></Icon></IconStyle></Style>
<Style id="JMA_nb120"><IconStyle><scale>0.5</scale><Icon><href>https://dwfile1.ncdr.nat.gov.tw/disp/demo/icon/S120.png</href></Icon></IconStyle></Style>
<styleUrl>#JMA_120</styleUrl>
<Point><coordinates>145.300003051758,27.8999996185303,0</coordinates></Point>
</Placemark>
<Placemark><name>JMA</name>
<Style id="JMAroute"><ListStyle></ListStyle>
<LineStyle><color>FFE9A700</color><width>4</width></LineStyle>
<PolyStyle><color>FFE9A700</color></PolyStyle>
</Style>
<styleUrl>#JMAroute</styleUrl>
<LineString>
<tessellate>1</tessellate>
<coordinates>161.2,17,0 156.9,18.3,0 152.1,20.6,0 148.5,23,0 146.1,25,0 145.3,27.9,0 </coordinates>
</LineString></Placemark></Folder>
<Folder><name>NMC</name><Placemark>
<name>NMC發佈時間:10/08 08</name>
<description>NMC發佈時間:10/08 08</description>
<StyleMap id="NMC_00"> 
<Pair><key>normal</key><styleUrl>#NMC_nb00</styleUrl></Pair>
<Pair><key>highlight</key><styleUrl>#NMC_hb00</styleUrl></Pair>
</StyleMap>
<Style id="NMC_hb00"><IconStyle><scale>0.6</scale><Icon><href>https://dwfile1.ncdr.nat.gov.tw/disp/demo/icon/p00.png</href></Icon></IconStyle></Style>
<Style id="NMC_nb00"><IconStyle><scale>0.5</scale><Icon><href>https://dwfile1.ncdr.nat.gov.tw/disp/demo/icon/p00.png</href></Icon></IconStyle></Style>
<styleUrl>#NMC_00</styleUrl>
<Point><coordinates>161.300003051758,16.7999992370605,0</coordinates></Point>
</Placemark>
<Placemark>
<name></name>
<description></description>
<StyleMap id="NMC_24"> 
<Pair><key>normal</key><styleUrl>#NMC_nb24</styleUrl></Pair>
<Pair><key>highlight</key><styleUrl>#NMC_hb24</styleUrl></Pair>
</StyleMap>
<Style id="NMC_hb24"><IconStyle><scale>0.6</scale><Icon><href>https://dwfile1.ncdr.nat.gov.tw/disp/demo/icon/p24.png</href></Icon></IconStyle></Style>
<Style id="NMC_nb24"><IconStyle><scale>0.5</scale><Icon><href>https://dwfile1.ncdr.nat.gov.tw/disp/demo/icon/p24.png</href></Icon></IconStyle></Style>
<styleUrl>#NMC_24</styleUrl>
<Point><coordinates>156.899993896484,18,0</coordinates></Point>
</Placemark>
<Placemark>
<name></name>
<description></description>
<StyleMap id="NMC_48"> 
<Pair><key>normal</key><styleUrl>#NMC_nb48</styleUrl></Pair>
<Pair><key>highlight</key><styleUrl>#NMC_hb48</styleUrl></Pair>
</StyleMap>
<Style id="NMC_hb48"><IconStyle><scale>0.6</scale><Icon><href>https://dwfile1.ncdr.nat.gov.tw/disp/demo/icon/p48.png</href></Icon></IconStyle></Style>
<Style id="NMC_nb48"><IconStyle><scale>0.5</scale><Icon><href>https://dwfile1.ncdr.nat.gov.tw/disp/demo/icon/p48.png</href></Icon></IconStyle></Style>
<styleUrl>#NMC_48</styleUrl>
<Point><coordinates>152.399993896484,20.2999992370605,0</coordinates></Point>
</Placemark>
<Placemark>
<name></name>
<description></description>
<StyleMap id="NMC_72"> 
<Pair><key>normal</key><styleUrl>#NMC_nb72</styleUrl></Pair>
<Pair><key>highlight</key><styleUrl>#NMC_hb72</styleUrl></Pair>
</StyleMap>
<Style id="NMC_hb72"><IconStyle><scale>0.6</scale><Icon><href>https://dwfile1.ncdr.nat.gov.tw/disp/demo/icon/p72.png</href></Icon></IconStyle></Style>
<Style id="NMC_nb72"><IconStyle><scale>0.5</scale><Icon><href>https://dwfile1.ncdr.nat.gov.tw/disp/demo/icon/p72.png</href></Icon></IconStyle></Style>
<styleUrl>#NMC_72</styleUrl>
<Point><coordinates>148.899993896484,22.7999992370605,0</coordinates></Point>
</Placemark>
<Placemark>
<name></name>
<description></description>
<StyleMap id="NMC_96"> 
<Pair><key>normal</key><styleUrl>#NMC_nb96</styleUrl></Pair>
<Pair><key>highlight</key><styleUrl>#NMC_hb96</styleUrl></Pair>
</StyleMap>
<Style id="NMC_hb96"><IconStyle><scale>0.6</scale><Icon><href>https://dwfile1.ncdr.nat.gov.tw/disp/demo/icon/p96.png</href></Icon></IconStyle></Style>
<Style id="NMC_nb96"><IconStyle><scale>0.5</scale><Icon><href>https://dwfile1.ncdr.nat.gov.tw/disp/demo/icon/p96.png</href></Icon></IconStyle></Style>
<styleUrl>#NMC_96</styleUrl>
<Point><coordinates>146.600006103516,25.2999992370605,0</coordinates></Point>
</Placemark>
<Placemark>
<name></name>
<description></description>
<StyleMap id="NMC_120"> 
<Pair><key>normal</key><styleUrl>#NMC_nb120</styleUrl></Pair>
<Pair><key>highlight</key><styleUrl>#NMC_hb120</styleUrl></Pair>
</StyleMap>
<Style id="NMC_hb120"><IconStyle><scale>0.6</scale><Icon><href>https://dwfile1.ncdr.nat.gov.tw/disp/demo/icon/p120.png</href></Icon></IconStyle></Style>
<Style id="NMC_nb120"><IconStyle><scale>0.5</scale><Icon><href>https://dwfile1.ncdr.nat.gov.tw/disp/demo/icon/p120.png</href></Icon></IconStyle></Style>
<styleUrl>#NMC_120</styleUrl>
<Point><coordinates>146.399993896484,29,0</coordinates></Point>
</Placemark>
<Placemark><name>NMC</name>
<Style id="NMCroute"><ListStyle></ListStyle>
<LineStyle><color>FF9955E7</color><width>4</width></LineStyle>
<PolyStyle><color>FF9955E7</color></PolyStyle>
</Style>
<styleUrl>#NMCroute</styleUrl>
<LineString>
<tessellate>1</tessellate>
<coordinates>161.3,16.8,0 156.9,18,0 152.4,20.3,0 148.9,22.8,0 146.6,25.3,0 146.4,29,0 </coordinates>
</LineString></Placemark></Folder>
<Folder><name>CWA</name><Placemark>
<name>CWA發佈時間:10/08 08</name>
<description>CWA發佈時間:10/08 08</description>
<StyleMap id="CWA_00"> 
<Pair><key>normal</key><styleUrl>#CWA_nb00</styleUrl></Pair>
<Pair><key>highlight</key><styleUrl>#CWA_hb00</styleUrl></Pair>
</StyleMap>
<Style id="CWA_hb00"><IconStyle><scale>0.6</scale><Icon><href>https://dwfile1.ncdr.nat.gov.tw/disp/demo/icon/B00.png</href></Icon></IconStyle></Style>
<Style id="CWA_nb00"><IconStyle><scale>0.5</scale><Icon><href>https://dwfile1.ncdr.nat.gov.tw/disp/demo/icon/B00.png</href></Icon></IconStyle></Style>
<styleUrl>#CWA_00</styleUrl>
<Point><coordinates>161,16.7999992370605,0</coordinates></Point>
</Placemark>
<Placemark>
<name></name>
<description></description>
<StyleMap id="CWA_24"> 
<Pair><key>normal</key><styleUrl>#CWA_nb24</styleUrl></Pair>
<Pair><key>highlight</key><styleUrl>#CWA_hb24</styleUrl></Pair>
</StyleMap>
<Style id="CWA_hb24"><IconStyle><scale>0.6</scale><Icon><href>https://dwfile1.ncdr.nat.gov.tw/disp/demo/icon/B24.png</href></Icon></IconStyle></Style>
<Style id="CWA_nb24"><IconStyle><scale>0.5</scale><Icon><href>https://dwfile1.ncdr.nat.gov.tw/disp/demo/icon/B24.png</href></Icon></IconStyle></Style>
<styleUrl>#CWA_24</styleUrl>
<Point><coordinates>156.699996948242,18.2000007629395,0</coordinates></Point>
</Placemark>
<Placemark>
<name></name>
<description></description>
<StyleMap id="CWA_48"> 
<Pair><key>normal</key><styleUrl>#CWA_nb48</styleUrl></Pair>
<Pair><key>highlight</key><styleUrl>#CWA_hb48</styleUrl></Pair>
</StyleMap>
<Style id="CWA_hb48"><IconStyle><scale>0.6</scale><Icon><href>https://dwfile1.ncdr.nat.gov.tw/disp/demo/icon/B48.png</href></Icon></IconStyle></Style>
<Style id="CWA_nb48"><IconStyle><scale>0.5</scale><Icon><href>https://dwfile1.ncdr.nat.gov.tw/disp/demo/icon/B48.png</href></Icon></IconStyle></Style>
<styleUrl>#CWA_48</styleUrl>
<Point><coordinates>152,20.3999996185303,0</coordinates></Point>
</Placemark>
<Placemark>
<name></name>
<description></description>
<StyleMap id="CWA_72"> 
<Pair><key>normal</key><styleUrl>#CWA_nb72</styleUrl></Pair>
<Pair><key>highlight</key><styleUrl>#CWA_hb72</styleUrl></Pair>
</StyleMap>
<Style id="CWA_hb72"><IconStyle><scale>0.6</scale><Icon><href>https://dwfile1.ncdr.nat.gov.tw/disp/demo/icon/B72.png</href></Icon></IconStyle></Style>
<Style id="CWA_nb72"><IconStyle><scale>0.5</scale><Icon><href>https://dwfile1.ncdr.nat.gov.tw/disp/demo/icon/B72.png</href></Icon></IconStyle></Style>
<styleUrl>#CWA_72</styleUrl>
<Point><coordinates>148.5,22.7000007629395,0</coordinates></Point>
</Placemark>
<Placemark>
<name></name>
<description></description>
<StyleMap id="CWA_96"> 
<Pair><key>normal</key><styleUrl>#CWA_nb96</styleUrl></Pair>
<Pair><key>highlight</key><styleUrl>#CWA_hb96</styleUrl></Pair>
</StyleMap>
<Style id="CWA_hb96"><IconStyle><scale>0.6</scale><Icon><href>https://dwfile1.ncdr.nat.gov.tw/disp/demo/icon/B96.png</href></Icon></IconStyle></Style>
<Style id="CWA_nb96"><IconStyle><scale>0.5</scale><Icon><href>https://dwfile1.ncdr.nat.gov.tw/disp/demo/icon/B96.png</href></Icon></IconStyle></Style>
<styleUrl>#CWA_96</styleUrl>
<Point><coordinates>146,24.7999992370605,0</coordinates></Point>
</Placemark>
<Placemark>
<name></name>
<description></description>
<StyleMap id="CWA_120"> 
<Pair><key>normal</key><styleUrl>#CWA_nb120</styleUrl></Pair>
<Pair><key>highlight</key><styleUrl>#CWA_hb120</styleUrl></Pair>
</StyleMap>
<Style id="CWA_hb120"><IconStyle><scale>0.6</scale><Icon><href>https://dwfile1.ncdr.nat.gov.tw/disp/demo/icon/B120.png</href></Icon></IconStyle></Style>
<Style id="CWA_nb120"><IconStyle><scale>0.5</scale><Icon><href>https://dwfile1.ncdr.nat.gov.tw/disp/demo/icon/B120.png</href></Icon></IconStyle></Style>
<styleUrl>#CWA_120</styleUrl>
<Point><coordinates>145,28.3999996185303,0</coordinates></Point>
</Placemark>
<Placemark><name>CWA</name>
<Style id="CWAroute"><ListStyle></ListStyle>
<LineStyle><color>FFB8734F</color><width>4</width></LineStyle>
<PolyStyle><color>FFB8734F</color></PolyStyle>
</Style>
<styleUrl>#CWAroute</styleUrl>
<LineString>
<tessellate>1</tessellate>
<coordinates>161,16.8,0 156.7,18.2,0 152,20.4,0 148.5,22.7,0 146,24.8,0 145,28.4,0 </coordinates>
</LineString></Placemark></Folder>
<Folder><name>KMA</name><Placemark>
<name>KMA發佈時間:10/08 08</name>
<description>KMA發佈時間:10/08 08</description>
<StyleMap id="KMA_00"> 
<Pair><key>normal</key><styleUrl>#KMA_nb00</styleUrl></Pair>
<Pair><key>highlight</key><styleUrl>#KMA_hb00</styleUrl></Pair>
</StyleMap>
<Style id="KMA_hb00"><IconStyle><scale>0.6</scale><Icon><href>https://dwfile1.ncdr.nat.gov.tw/disp/demo/icon/G00.png</href></Icon></IconStyle></Style>
<Style id="KMA_nb00"><IconStyle><scale>0.5</scale><Icon><href>https://dwfile1.ncdr.nat.gov.tw/disp/demo/icon/G00.png</href></Icon></IconStyle></Style>
<styleUrl>#KMA_00</styleUrl>
<Point><coordinates>161.300003051758,16.8999996185303,0</coordinates></Point>
</Placemark>
<Placemark>
<name></name>
<description></description>
<StyleMap id="KMA_24"> 
<Pair><key>normal</key><styleUrl>#KMA_nb24</styleUrl></Pair>
<Pair><key>highlight</key><styleUrl>#KMA_hb24</styleUrl></Pair>
</StyleMap>
<Style id="KMA_hb24"><IconStyle><scale>0.6</scale><Icon><href>https://dwfile1.ncdr.nat.gov.tw/disp/demo/icon/G24.png</href></Icon></IconStyle></Style>
<Style id="KMA_nb24"><IconStyle><scale>0.5</scale><Icon><href>https://dwfile1.ncdr.nat.gov.tw/disp/demo/icon/G24.png</href></Icon></IconStyle></Style>
<styleUrl>#KMA_24</styleUrl>
<Point><coordinates>156.5,18.5,0</coordinates></Point>
</Placemark>
<Placemark>
<name></name>
<description></description>
<StyleMap id="KMA_48"> 
<Pair><key>normal</key><styleUrl>#KMA_nb48</styleUrl></Pair>
<Pair><key>highlight</key><styleUrl>#KMA_hb48</styleUrl></Pair>
</StyleMap>
<Style id="KMA_hb48"><IconStyle><scale>0.6</scale><Icon><href>https://dwfile1.ncdr.nat.gov.tw/disp/demo/icon/G48.png</href></Icon></IconStyle></Style>
<Style id="KMA_nb48"><IconStyle><scale>0.5</scale><Icon><href>https://dwfile1.ncdr.nat.gov.tw/disp/demo/icon/G48.png</href></Icon></IconStyle></Style>
<styleUrl>#KMA_48</styleUrl>
<Point><coordinates>152.100006103516,20.5,0</coordinates></Point>
</Placemark>
<Placemark>
<name></name>
<description></description>
<StyleMap id="KMA_72"> 
<Pair><key>normal</key><styleUrl>#KMA_nb72</styleUrl></Pair>
<Pair><key>highlight</key><styleUrl>#KMA_hb72</styleUrl></Pair>
</StyleMap>
<Style id="KMA_hb72"><IconStyle><scale>0.6</scale><Icon><href>https://dwfile1.ncdr.nat.gov.tw/disp/demo/icon/G72.png</href></Icon></IconStyle></Style>
<Style id="KMA_nb72"><IconStyle><scale>0.5</scale><Icon><href>https://dwfile1.ncdr.nat.gov.tw/disp/demo/icon/G72.png</href></Icon></IconStyle></Style>
<styleUrl>#KMA_72</styleUrl>
<Point><coordinates>148.100006103516,23.2999992370605,0</coordinates></Point>
</Placemark>
<Placemark>
<name></name>
<description></description>
<StyleMap id="KMA_96"> 
<Pair><key>normal</key><styleUrl>#KMA_nb96</styleUrl></Pair>
<Pair><key>highlight</key><styleUrl>#KMA_hb96</styleUrl></Pair>
</StyleMap>
<Style id="KMA_hb96"><IconStyle><scale>0.6</scale><Icon><href>https://dwfile1.ncdr.nat.gov.tw/disp/demo/icon/G96.png</href></Icon></IconStyle></Style>
<Style id="KMA_nb96"><IconStyle><scale>0.5</scale><Icon><href>https://dwfile1.ncdr.nat.gov.tw/disp/demo/icon/G96.png</href></Icon></IconStyle></Style>
<styleUrl>#KMA_96</styleUrl>
<Point><coordinates>146.100006103516,25.3999996185303,0</coordinates></Point>
</Placemark>
<Placemark>
<name></name>
<description></description>
<StyleMap id="KMA_120"> 
<Pair><key>normal</key><styleUrl>#KMA_nb120</styleUrl></Pair>
<Pair><key>highlight</key><styleUrl>#KMA_hb120</styleUrl></Pair>
</StyleMap>
<Style id="KMA_hb120"><IconStyle><scale>0.6</scale><Icon><href>https://dwfile1.ncdr.nat.gov.tw/disp/demo/icon/G120.png</href></Icon></IconStyle></Style>
<Style id="KMA_nb120"><IconStyle><scale>0.5</scale><Icon><href>https://dwfile1.ncdr.nat.gov.tw/disp/demo/icon/G120.png</href></Icon></IconStyle></Style>
<styleUrl>#KMA_120</styleUrl>
<Point><coordinates>146.100006103516,28.6000003814697,0</coordinates></Point>
</Placemark>
<Placemark><name>KMA</name>
<Style id="KMAroute"><ListStyle></ListStyle>
<LineStyle><color>FF2FB763</color><width>4</width></LineStyle>
<PolyStyle><color>FF2FB763</color></PolyStyle>
</Style>
<styleUrl>#KMAroute</styleUrl>
<LineString>
<tessellate>1</tessellate>
<coordinates>161.3,16.9,0 156.5,18.5,0 152.1,20.5,0 148.1,23.3,0 146.1,25.4,0 146.1,28.6,0 </coordinates>
</LineString></Placemark></Folder>
<Folder><name>JTWC</name><Placemark>
<name>JTWC發佈時間:10/08 02</name>
<description>JTWC發佈時間:10/08 02</description>
<StyleMap id="JTWC_00"> 
<Pair><key>normal</key><styleUrl>#JTWC_nb00</styleUrl></Pair>
<Pair><key>highlight</key><styleUrl>#JTWC_hb00</styleUrl></Pair>
</StyleMap>
<Style id="JTWC_hb00"><IconStyle><scale>0.6</scale><Icon><href>https://dwfile1.ncdr.nat.gov.tw/disp/demo/icon/O00.png</href></Icon></IconStyle></Style>
<Style id="JTWC_nb00"><IconStyle><scale>0.5</scale><Icon><href>https://dwfile1.ncdr.nat.gov.tw/disp/demo/icon/O00.png</href></Icon></IconStyle></Style>
<styleUrl>#JTWC_00</styleUrl>
<Point><coordinates>157.699996948242,26.2000007629395,0</coordinates></Point>
</Placemark>
<Placemark>
<name></name>
<description></description>
<StyleMap id="JTWC_24"> 
<Pair><key>normal</key><styleUrl>#JTWC_nb24</styleUrl></Pair>
<Pair><key>highlight</key><styleUrl>#JTWC_hb24</styleUrl></Pair>
</StyleMap>
<Style id="JTWC_hb24"><IconStyle><scale>0.6</scale><Icon><href>https://dwfile1.ncdr.nat.gov.tw/disp/demo/icon/O24.png</href></Icon></IconStyle></Style>
<Style id="JTWC_nb24"><IconStyle><scale>0.5</scale><Icon><href>https://dwfile1.ncdr.nat.gov.tw/disp/demo/icon/O24.png</href></Icon></IconStyle></Style>
<styleUrl>#JTWC_24</styleUrl>
<Point><coordinates>151.5,28.1000003814697,0</coordinates></Point>
</Placemark>
<Placemark>
<name></name>
<description></description>
<StyleMap id="JTWC_48"> 
<Pair><key>normal</key><styleUrl>#JTWC_nb48</styleUrl></Pair>
<Pair><key>highlight</key><styleUrl>#JTWC_hb48</styleUrl></Pair>
</StyleMap>
<Style id="JTWC_hb48"><IconStyle><scale>0.6</scale><Icon><href>https://dwfile1.ncdr.nat.gov.tw/disp/demo/icon/O48.png</href></Icon></IconStyle></Style>
<Style id="JTWC_nb48"><IconStyle><scale>0.5</scale><Icon><href>https://dwfile1.ncdr.nat.gov.tw/disp/demo/icon/O48.png</href></Icon></IconStyle></Style>
<styleUrl>#JTWC_48</styleUrl>
<Point><coordinates>149,30.7000007629395,0</coordinates></Point>
</Placemark>
<Placemark>
<name></name>
<description></description>
<StyleMap id="JTWC_72"> 
<Pair><key>normal</key><styleUrl>#JTWC_nb72</styleUrl></Pair>
<Pair><key>highlight</key><styleUrl>#JTWC_hb72</styleUrl></Pair>
</StyleMap>
<Style id="JTWC_hb72"><IconStyle><scale>0.6</scale><Icon><href>https://dwfile1.ncdr.nat.gov.tw/disp/demo/icon/O72.png</href></Icon></IconStyle></Style>
<Style id="JTWC_nb72"><IconStyle><scale>0.5</scale><Icon><href>https://dwfile1.ncdr.nat.gov.tw/disp/demo/icon/O72.png</href></Icon></IconStyle></Style>
<styleUrl>#JTWC_72</styleUrl>
<Point><coordinates>152.100006103516,34.7000007629395,0</coordinates></Point>
</Placemark>
<Placemark>
<name></name>
<description></description>
<StyleMap id="JTWC_96"> 
<Pair><key>normal</key><styleUrl>#JTWC_nb96</styleUrl></Pair>
<Pair><key>highlight</key><styleUrl>#JTWC_hb96</styleUrl></Pair>
</StyleMap>
<Style id="JTWC_hb96"><IconStyle><scale>0.6</scale><Icon><href>https://dwfile1.ncdr.nat.gov.tw/disp/demo/icon/O96.png</href></Icon></IconStyle></Style>
<Style id="JTWC_nb96"><IconStyle><scale>0.5</scale><Icon><href>https://dwfile1.ncdr.nat.gov.tw/disp/demo/icon/O96.png</href></Icon></IconStyle></Style>
<styleUrl>#JTWC_96</styleUrl>
<Point><coordinates>159.600006103516,37.2000007629395,0</coordinates></Point>
</Placemark>
<Placemark>
<name></name>
<description></description>
<StyleMap id="JTWC_120"> 
<Pair><key>normal</key><styleUrl>#JTWC_nb120</styleUrl></Pair>
<Pair><key>highlight</key><styleUrl>#JTWC_hb120</styleUrl></Pair>
</StyleMap>
<Style id="JTWC_hb120"><IconStyle><scale>0.6</scale><Icon><href>https://dwfile1.ncdr.nat.gov.tw/disp/demo/icon/O120.png</href></Icon></IconStyle></Style>
<Style id="JTWC_nb120"><IconStyle><scale>0.5</scale><Icon><href>https://dwfile1.ncdr.nat.gov.tw/disp/demo/icon/O120.png</href></Icon></IconStyle></Style>
<styleUrl>#JTWC_120</styleUrl>
<Point><coordinates>174,40.2999992370605,0</coordinates></Point>
</Placemark>
<Placemark><name>JTWC</name>
<Style id="JTWCroute"><ListStyle></ListStyle>
<LineStyle><color>FF0099F3</color><width>4</width></LineStyle>
<PolyStyle><color>FF0099F3</color></PolyStyle>
</Style>
<styleUrl>#JTWCroute</styleUrl>
<LineString>
<tessellate>1</tessellate>
<coordinates>157.7,26.2,0 151.5,28.1,0 149,30.7,0 152.1,34.7,0 159.6,37.2,0 174,40.3,0 </coordinates>
</LineString></Placemark></Folder>
<Folder><name>JMA</name><Placemark>
<name>JMA發佈時間:10/08 08</name>
<description>JMA發佈時間:10/08 08</description>
<StyleMap id="JMA_00"> 
<Pair><key>normal</key><styleUrl>#JMA_nb00</styleUrl></Pair>
<Pair><key>highlight</key><styleUrl>#JMA_hb00</styleUrl></Pair>
</StyleMap>
<Style id="JMA_hb00"><IconStyle><scale>0.6</scale><Icon><href>https://dwfile1.ncdr.nat.gov.tw/disp/demo/icon/S00.png</href></Icon></IconStyle></Style>
<Style id="JMA_nb00"><IconStyle><scale>0.5</scale><Icon><href>https://dwfile1.ncdr.nat.gov.tw/disp/demo/icon/S00.png</href></Icon></IconStyle></Style>
<styleUrl>#JMA_00</styleUrl>
<Point><coordinates>155.800003051758,26.7000007629395,0</coordinates></Point>
</Placemark>
<Placemark>
<name></name>
<description></description>
<StyleMap id="JMA_24"> 
<Pair><key>normal</key><styleUrl>#JMA_nb24</styleUrl></Pair>
<Pair><key>highlight</key><styleUrl>#JMA_hb24</styleUrl></Pair>
</StyleMap>
<Style id="JMA_hb24"><IconStyle><scale>0.6</scale><Icon><href>https://dwfile1.ncdr.nat.gov.tw/disp/demo/icon/S24.png</href></Icon></IconStyle></Style>
<Style id="JMA_nb24"><IconStyle><scale>0.5</scale><Icon><href>https://dwfile1.ncdr.nat.gov.tw/disp/demo/icon/S24.png</href></Icon></IconStyle></Style>
<styleUrl>#JMA_24</styleUrl>
<Point><coordinates>150.100006103516,28.7000007629395,0</coordinates></Point>
</Placemark>
<Placemark>
<name></name>
<description></description>
<StyleMap id="JMA_48"> 
<Pair><key>normal</key><styleUrl>#JMA_nb48</styleUrl></Pair>
<Pair><key>highlight</key><styleUrl>#JMA_hb48</styleUrl></Pair>
</StyleMap>
<Style id="JMA_hb48"><IconStyle><scale>0.6</scale><Icon><href>https://dwfile1.ncdr.nat.gov.tw/disp/demo/icon/S48.png</href></Icon></IconStyle></Style>
<Style id="JMA_nb48"><IconStyle><scale>0.5</scale><Icon><href>https://dwfile1.ncdr.nat.gov.tw/disp/demo/icon/S48.png</href></Icon></IconStyle></Style>
<styleUrl>#JMA_48</styleUrl>
<Point><coordinates>147.800003051758,31.3999996185303,0</coordinates></Point>
</Placemark>
<Placemark>
<name></name>
<description></description>
<StyleMap id="JMA_72"> 
<Pair><key>normal</key><styleUrl>#JMA_nb72</styleUrl></Pair>
<Pair><key>highlight</key><styleUrl>#JMA_hb72</styleUrl></Pair>
</StyleMap>
<Style id="JMA_hb72"><IconStyle><scale>0.6</scale><Icon><href>https://dwfile1.ncdr.nat.gov.tw/disp/demo/icon/S72.png</href></Icon></IconStyle></Style>
<Style id="JMA_nb72"><IconStyle><scale>0.5</scale><Icon><href>https://dwfile1.ncdr.nat.gov.tw/disp/demo/icon/S72.png</href></Icon></IconStyle></Style>
<styleUrl>#JMA_72</styleUrl>
<Point><coordinates>149.699996948242,35.5999984741211,0</coordinates></Point>
</Placemark>
<Placemark><name>JMA</name>
<Style id="JMAroute"><ListStyle></ListStyle>
<LineStyle><color>FFE9A700</color><width>4</width></LineStyle>
<PolyStyle><color>FFE9A700</color></PolyStyle>
</Style>
<styleUrl>#JMAroute</styleUrl>
<LineString>
<tessellate>1</tessellate>
<coordinates>155.8,26.7,0 150.1,28.7,0 147.8,31.4,0 149.7,35.6,0 </coordinates>
</LineString></Placemark></Folder>
<Folder><name>NMC</name><Placemark>
<name>NMC發佈時間:10/08 08</name>
<description>NMC發佈時間:10/08 08</description>
<StyleMap id="NMC_00"> 
<Pair><key>normal</key><styleUrl>#NMC_nb00</styleUrl></Pair>
<Pair><key>highlight</key><styleUrl>#NMC_hb00</styleUrl></Pair>
</StyleMap>
<Style id="NMC_hb00"><IconStyle><scale>0.6</scale><Icon><href>https://dwfile1.ncdr.nat.gov.tw/disp/demo/icon/p00.png</href></Icon></IconStyle></Style>
<Style id="NMC_nb00"><IconStyle><scale>0.5</scale><Icon><href>https://dwfile1.ncdr.nat.gov.tw/disp/demo/icon/p00.png</href></Icon></IconStyle></Style>
<styleUrl>#NMC_00</styleUrl>
<Point><coordinates>155.899993896484,26.7000007629395,0</coordinates></Point>
</Placemark>
<Placemark>
<name></name>
<description></description>
<StyleMap id="NMC_24"> 
<Pair><key>normal</key><styleUrl>#NMC_nb24</styleUrl></Pair>
<Pair><key>highlight</key><styleUrl>#NMC_hb24</styleUrl></Pair>
</StyleMap>
<Style id="NMC_hb24"><IconStyle><scale>0.6</scale><Icon><href>https://dwfile1.ncdr.nat.gov.tw/disp/demo/icon/p24.png</href></Icon></IconStyle></Style>
<Style id="NMC_nb24"><IconStyle><scale>0.5</scale><Icon><href>https://dwfile1.ncdr.nat.gov.tw/disp/demo/icon/p24.png</href></Icon></IconStyle></Style>
<styleUrl>#NMC_24</styleUrl>
<Point><coordinates>150.300003051758,28.3999996185303,0</coordinates></Point>
</Placemark>
<Placemark>
<name></name>
<description></description>
<StyleMap id="NMC_48"> 
<Pair><key>normal</key><styleUrl>#NMC_nb48</styleUrl></Pair>
<Pair><key>highlight</key><styleUrl>#NMC_hb48</styleUrl></Pair>
</StyleMap>
<Style id="NMC_hb48"><IconStyle><scale>0.6</scale><Icon><href>https://dwfile1.ncdr.nat.gov.tw/disp/demo/icon/p48.png</href></Icon></IconStyle></Style>
<Style id="NMC_nb48"><IconStyle><scale>0.5</scale><Icon><href>https://dwfile1.ncdr.nat.gov.tw/disp/demo/icon/p48.png</href></Icon></IconStyle></Style>
<styleUrl>#NMC_48</styleUrl>
<Point><coordinates>148.100006103516,31.1000003814697,0</coordinates></Point>
</Placemark>
<Placemark>
<name></name>
<description></description>
<StyleMap id="NMC_72"> 
<Pair><key>normal</key><styleUrl>#NMC_nb72</styleUrl></Pair>
<Pair><key>highlight</key><styleUrl>#NMC_hb72</styleUrl></Pair>
</StyleMap>
<Style id="NMC_hb72"><IconStyle><scale>0.6</scale><Icon><href>https://dwfile1.ncdr.nat.gov.tw/disp/demo/icon/p72.png</href></Icon></IconStyle></Style>
<Style id="NMC_nb72"><IconStyle><scale>0.5</scale><Icon><href>https://dwfile1.ncdr.nat.gov.tw/disp/demo/icon/p72.png</href></Icon></IconStyle></Style>
<styleUrl>#NMC_72</styleUrl>
<Point><coordinates>150.199996948242,34.5,0</coordinates></Point>
</Placemark>
<Placemark><name>NMC</name>
<Style id="NMCroute"><ListStyle></ListStyle>
<LineStyle><color>FF9955E7</color><width>4</width></LineStyle>
<PolyStyle><color>FF9955E7</color></PolyStyle>
</Style>
<styleUrl>#NMCroute</styleUrl>
<LineString>
<tessellate>1</tessellate>
<coordinates>155.9,26.7,0 150.3,28.4,0 148.1,31.1,0 150.2,34.5,0 </coordinates>
</LineString></Placemark></Folder>
<Folder><name>CWA</name><Placemark>
<name>CWA發佈時間:10/08 08</name>
<description>CWA發佈時間:10/08 08</description>
<StyleMap id="CWA_00"> 
<Pair><key>normal</key><styleUrl>#CWA_nb00</styleUrl></Pair>
<Pair><key>highlight</key><styleUrl>#CWA_hb00</styleUrl></Pair>
</StyleMap>
<Style id="CWA_hb00"><IconStyle><scale>0.6</scale><Icon><href>https://dwfile1.ncdr.nat.gov.tw/disp/demo/icon/B00.png</href></Icon></IconStyle></Style>
<Style id="CWA_nb00"><IconStyle><scale>0.5</scale><Icon><href>https://dwfile1.ncdr.nat.gov.tw/disp/demo/icon/B00.png</href></Icon></IconStyle></Style>
<styleUrl>#CWA_00</styleUrl>
<Point><coordinates>155.800003051758,26.5,0</coordinates></Point>
</Placemark>
<Placemark>
<name></name>
<description></description>
<StyleMap id="CWA_24"> 
<Pair><key>normal</key><styleUrl>#CWA_nb24</styleUrl></Pair>
<Pair><key>highlight</key><styleUrl>#CWA_hb24</styleUrl></Pair>
</StyleMap>
<Style id="CWA_hb24"><IconStyle><scale>0.6</scale><Icon><href>https://dwfile1.ncdr.nat.gov.tw/disp/demo/icon/B24.png</href></Icon></IconStyle></Style>
<Style id="CWA_nb24"><IconStyle><scale>0.5</scale><Icon><href>https://dwfile1.ncdr.nat.gov.tw/disp/demo/icon/B24.png</href></Icon></IconStyle></Style>
<styleUrl>#CWA_24</styleUrl>
<Point><coordinates>150.300003051758,28,0</coordinates></Point>
</Placemark>
<Placemark>
<name></name>
<description></description>
<StyleMap id="CWA_48"> 
<Pair><key>normal</key><styleUrl>#CWA_nb48</styleUrl></Pair>
<Pair><key>highlight</key><styleUrl>#CWA_hb48</styleUrl></Pair>
</StyleMap>
<Style id="CWA_hb48"><IconStyle><scale>0.6</scale><Icon><href>https://dwfile1.ncdr.nat.gov.tw/disp/demo/icon/B48.png</href></Icon></IconStyle></Style>
<Style id="CWA_nb48"><IconStyle><scale>0.5</scale><Icon><href>https://dwfile1.ncdr.nat.gov.tw/disp/demo/icon/B48.png</href></Icon></IconStyle></Style>
<styleUrl>#CWA_48</styleUrl>
<Point><coordinates>148.300003051758,31.7000007629395,0</coordinates></Point>
</Placemark>
<Placemark>
<name></name>
<description></description>
<StyleMap id="CWA_72"> 
<Pair><key>normal</key><styleUrl>#CWA_nb72</styleUrl></Pair>
<Pair><key>highlight</key><styleUrl>#CWA_hb72</styleUrl></Pair>
</StyleMap>
<Style id="CWA_hb72"><IconStyle><scale>0.6</scale><Icon><href>https://dwfile1.ncdr.nat.gov.tw/disp/demo/icon/B72.png</href></Icon></IconStyle></Style>
<Style id="CWA_nb72"><IconStyle><scale>0.5</scale><Icon><href>https://dwfile1.ncdr.nat.gov.tw/disp/demo/icon/B72.png</href></Icon></IconStyle></Style>
<styleUrl>#CWA_72</styleUrl>
<Point><coordinates>151.600006103516,35.2999992370605,0</coordinates></Point>
</Placemark>
<Placemark>
<name></name>
<description></description>
<StyleMap id="CWA_96"> 
<Pair><key>normal</key><styleUrl>#CWA_nb96</styleUrl></Pair>
<Pair><key>highlight</key><styleUrl>#CWA_hb96</styleUrl></Pair>
</StyleMap>
<Style id="CWA_hb96"><IconStyle><scale>0.6</scale><Icon><href>https://dwfile1.ncdr.nat.gov.tw/disp/demo/icon/B96.png</href></Icon></IconStyle></Style>
<Style id="CWA_nb96"><IconStyle><scale>0.5</scale><Icon><href>https://dwfile1.ncdr.nat.gov.tw/disp/demo/icon/B96.png</href></Icon></IconStyle></Style>
<styleUrl>#CWA_96</styleUrl>
<Point><coordinates>160,37,0</coordinates></Point>
</Placemark>
<Placemark><name>CWA</name>
<Style id="CWAroute"><ListStyle></ListStyle>
<LineStyle><color>FFB8734F</color><width>4</width></LineStyle>
<PolyStyle><color>FFB8734F</color></PolyStyle>
</Style>
<styleUrl>#CWAroute</styleUrl>
<LineString>
<tessellate>1</tessellate>
<coordinates>155.8,26.5,0 150.3,28,0 148.3,31.7,0 151.6,35.3,0 160,37,0 </coordinates>
</LineString></Placemark></Folder>
<Folder><name>KMA</name><Placemark>
<name>KMA發佈時間:10/08 08</name>
<description>KMA發佈時間:10/08 08</description>
<StyleMap id="KMA_00"> 
<Pair><key>normal</key><styleUrl>#KMA_nb00</styleUrl></Pair>
<Pair><key>highlight</key><styleUrl>#KMA_hb00</styleUrl></Pair>
</StyleMap>
<Style id="KMA_hb00"><IconStyle><scale>0.6</scale><Icon><href>https://dwfile1.ncdr.nat.gov.tw/disp/demo/icon/G00.png</href></Icon></IconStyle></Style>
<Style id="KMA_nb00"><IconStyle><scale>0.5</scale><Icon><href>https://dwfile1.ncdr.nat.gov.tw/disp/demo/icon/G00.png</href></Icon></IconStyle></Style>
<styleUrl>#KMA_00</styleUrl>
<Point><coordinates>155.600006103516,26.6000003814697,0</coordinates></Point>
</Placemark>
<Placemark>
<name></name>
<description></description>
<StyleMap id="KMA_24"> 
<Pair><key>normal</key><styleUrl>#KMA_nb24</styleUrl></Pair>
<Pair><key>highlight</key><styleUrl>#KMA_hb24</styleUrl></Pair>
</StyleMap>
<Style id="KMA_hb24"><IconStyle><scale>0.6</scale><Icon><href>https://dwfile1.ncdr.nat.gov.tw/disp/demo/icon/G24.png</href></Icon></IconStyle></Style>
<Style id="KMA_nb24"><IconStyle><scale>0.5</scale><Icon><href>https://dwfile1.ncdr.nat.gov.tw/disp/demo/icon/G24.png</href></Icon></IconStyle></Style>
<styleUrl>#KMA_24</styleUrl>
<Point><coordinates>150.100006103516,28.5,0</coordinates></Point>
</Placemark>
<Placemark>
<name></name>
<description></description>
<StyleMap id="KMA_48"> 
<Pair><key>normal</key><styleUrl>#KMA_nb48</styleUrl></Pair>
<Pair><key>highlight</key><styleUrl>#KMA_hb48</styleUrl></Pair>
</StyleMap>
<Style id="KMA_hb48"><IconStyle><scale>0.6</scale><Icon><href>https://dwfile1.ncdr.nat.gov.tw/disp/demo/icon/G48.png</href></Icon></IconStyle></Style>
<Style id="KMA_nb48"><IconStyle><scale>0.5</scale><Icon><href>https://dwfile1.ncdr.nat.gov.tw/disp/demo/icon/G48.png</href></Icon></IconStyle></Style>
<styleUrl>#KMA_48</styleUrl>
<Point><coordinates>148,31.2000007629395,0</coordinates></Point>
</Placemark>
<Placemark>
<name></name>
<description></description>
<StyleMap id="KMA_72"> 
<Pair><key>normal</key><styleUrl>#KMA_nb72</styleUrl></Pair>
<Pair><key>highlight</key><styleUrl>#KMA_hb72</styleUrl></Pair>
</StyleMap>
<Style id="KMA_hb72"><IconStyle><scale>0.6</scale><Icon><href>https://dwfile1.ncdr.nat.gov.tw/disp/demo/icon/G72.png</href></Icon></IconStyle></Style>
<Style id="KMA_nb72"><IconStyle><scale>0.5</scale><Icon><href>https://dwfile1.ncdr.nat.gov.tw/disp/demo/icon/G72.png</href></Icon></IconStyle></Style>
<styleUrl>#KMA_72</styleUrl>
<Point><coordinates>150,34.9000015258789,0</coordinates></Point>
</Placemark>
<Placemark>
<name></name>
<description></description>
<StyleMap id="KMA_96"> 
<Pair><key>normal</key><styleUrl>#KMA_nb96</styleUrl></Pair>
<Pair><key>highlight</key><styleUrl>#KMA_hb96</styleUrl></Pair>
</StyleMap>
<Style id="KMA_hb96"><IconStyle><scale>0.6</scale><Icon><href>https://dwfile1.ncdr.nat.gov.tw/disp/demo/icon/G96.png</href></Icon></IconStyle></Style>
<Style id="KMA_nb96"><IconStyle><scale>0.5</scale><Icon><href>https://dwfile1.ncdr.nat.gov.tw/disp/demo/icon/G96.png</href></Icon></IconStyle></Style>
<styleUrl>#KMA_96</styleUrl>
<Point><coordinates>159.899993896484,37.9000015258789,0</coordinates></Point>
</Placemark>
<Placemark><name>KMA</name>
<Style id="KMAroute"><ListStyle></ListStyle>
<LineStyle><color>FF2FB763</color><width>4</width></LineStyle>
<PolyStyle><color>FF2FB763</color></PolyStyle>
</Style>
<styleUrl>#KMAroute</styleUrl>
<LineString>
<tessellate>1</tessellate>
<coordinates>155.6,26.6,0 150.1,28.5,0 148,31.2,0 150,34.9,0 159.9,37.9,0 </coordinates>
</LineString></Placemark></Folder>
<ScreenOverlay>
<name>Legend</name>
<Icon>
<href>https://satis.ncdr.nat.gov.tw/kml/country.gif</href>
<viewBoundScale>0.4</viewBoundScale>
</Icon>
<overlayXY x="0" y="0.1" xunits="fraction" yunits="fraction"/>
<screenXY x="0" y="0.1"     xunits="fraction" yunits="fraction"/>
<rotationXY x="0.5" y="0.5" xunits="fraction" yunits="fraction"/>
<size x="105" y="200" xunits="pixels" yunits="pixels"/>
</ScreenOverlay>
<ScreenOverlay>
<name>NCDR</name>
<Icon>
<href>https://satis.ncdr.nat.gov.tw/kml/logo01.png</href>
<viewBoundScale>0.4</viewBoundScale>
</Icon>
<overlayXY x="0.05" y="1" xunits="fraction" yunits="fraction"/>
<screenXY x="0.05" y="1"     xunits="fraction" yunits="fraction"/>
<rotationXY x="0.5" y="0.5" xunits="fraction" yunits="fraction"/>
<size x="-1" y="-1" xunits="pixels" yunits="pixels"/>
</ScreenOverlay>
</Document>
</kml>